0 FENGYUN 1C DEB
1 30404U 99025ADT 13281.17097558  .00001237  00000-0  18004-2 0  7157
2 30404 099.7948 174.4401 0397376 031.2793 331.1277 13.29002160325749
0 FENGYUN 1C DEB
1 30404U 99025ADT 13284.18215288  .00001033  00000-0  15145-2 0  7161
2 30404 099.7950 177.3026 0397207 024.1716 337.7399 13.29006833326149
0 FENGYUN 1C DEB
1 30404U 99025ADT 13286.13940511  .00001185  00000-0  17282-2 0  7175
2 30404 099.7955 179.1633 0397348 019.5129 342.0732 13.29012885326403
0 FENGYUN 1C DEB
1 30404U 99025ADT 13289.15054915  .00001184  00000-0  17240-2 0  7188
2 30404 099.7941 182.0274 0398073 012.4031 348.6662 13.29020223326805
0 FENGYUN 1C DEB
1 30404U 99025ADT 13291.18305364  .00001132  00000-0  16503-2 0  7196
2 30404 099.7945 183.9603 0398393 007.5319 353.1485 13.29024581327079
0 FENGYUN 1C DEB
1 30404U 99025ADT 13293.66722002  .00000959  00000-0  14086-2 0  7205
2 30404 099.7965 186.3220 0397999 001.6368 358.5723 13.29028220327408
